OBJECT_NAME,OBJECT_ID,EPOCH,MEAN_MOTION,ECCENTRICITY,INCLINATION,RA_OF_ASC_NODE,ARG_OF_PERICENTER,MEAN_ANOMALY,EPHEMERIS_TYPE,CLASSIFICATION_TYPE,NORAD_CAT_ID,ELEMENT_SET_NO,REV_AT_EPOCH,BSTAR,MEAN_MOTION_DOT,MEAN_MOTION_DDOT
COSMOS 2507 (RODNIK-S 13),2015-050A,2026-07-22T13:39:45.271008,12.42928196,.00088834,82.4902,57.6360,275.2029,84.8037,0,U,40920,999,49125,.1112359E-2,.164E-5,0
COSMOS 2508 (RODNIK-S 14),2015-050B,2026-07-22T14:31:22.356768,12.42915476,.00136402,82.4855,56.1052,310.0121,49.9761,0,U,40921,999,49124,.3485023E-3,.58E-6,0
COSMOS 2509 (RODNIK-S 15),2015-050C,2026-07-22T13:05:59.546976,12.42885296,.0014279,82.4863,56.2481,327.9002,32.1207,0,U,40922,999,49127,.96685723E-3,.144E-5,0
LQSAT,2015-057A,2026-07-22T13:45:59.186016,14.76819010,.0017603,97.6707,195.2007,152.4439,207.7709,0,U,40958,999,58053,.62867507E-4,.394E-5,0
LINGQIAO VIDEO A,2015-057B,2026-07-22T15:32:23.811648,14.77431454,.00173875,97.6646,196.7042,149.2378,210.9856,0,U,40959,999,58064,.36929519E-4,.215E-5,0
LINGQIAO VIDEO B,2015-057C,2026-07-22T14:55:08.916672,14.77538945,.00175623,97.6611,197.8335,149.3493,210.8748,0,U,40960,999,58068,.12474628E-3,.844E-5,0
JILIN-1,2015-057D,2026-07-22T13:14:12.432192,14.78209190,.00178395,97.6525,201.1659,143.8400,216.4022,0,U,40961,999,58083,.88331257E-4,.593E-5,0
FOX-1A (AO-85),2015-058D,2026-07-22T08:43:50.116800,14.91122448,.01329839,64.7740,169.6512,43.0929,318.0501,0,U,40967,999,11881,.30490392E-3,.3414E-4,0
SINOD-D 1,2015-058E,2026-07-22T07:22:40.740672,14.96140076,.01216474,64.7744,148.9094,39.4656,321.5240,0,U,40968,999,12191,.43079661E-3,.5472E-4,0
ELEKTRO-L 2,2015-074A,2026-07-22T07:49:52.436640,1.00272517,.00006779,6.7802,70.0895,231.3120,101.6553,0,U,41105,999,3885,0,-.119E-5,0
DAMPE,2015-078A,2026-07-22T14:19:26.505120,15.30866194,.00107378,97.4574,209.2412,317.7198,42.3214,0,U,41173,999,58996,.39595243E-4,.1104E-4,0
ORBCOMM FM114,2015-081A,2026-07-21T16:49:23.983392,14.58891456,.0002691,47.0030,198.8231,333.6121,26.4627,0,U,41179,999,56279,.84884867E-4,.23E-5,0
ORBCOMM FM110,2015-081D,2026-07-22T08:57:53.036928,14.58926922,.00038164,47.0003,195.0650,250.4417,109.6057,0,U,41182,999,56276,.16607226E-3,.615E-5,0
ORBCOMM FM112,2015-081F,2026-07-21T19:05:33.175104,14.58945312,.00032826,46.9989,106.5867,357.6021,2.4849,0,U,41184,999,56400,.13061578E-3,.447E-5,0
ORBCOMM FM113,2015-081G,2026-07-22T10:59:51.570528,14.58887318,.00018164,47.0007,103.8481,351.0559,9.0294,0,U,41185,999,56408,.90045145E-4,.255E-5,0
ORBCOMM FM108,2015-081J,2026-07-22T11:43:32.797056,14.58917449,.00021742,47.0060,15.2864,351.0042,9.0805,0,U,41187,999,56523,.12318365E-3,.412E-5,0
ORBCOMM FM117,2015-081K,2026-07-22T12:32:54.859488,14.58904397,.00025484,47.0023,13.7495,359.8916,0.1969,0,U,41188,999,56528,.11991292E-3,.396E-5,0
ORBCOMM FM116,2015-081L,2026-07-22T10:25:37.600608,14.58913578,.00017368,47.0023,103.9572,248.7188,111.3513,0,U,41189,999,56408,.12494142E-3,.42E-5,0
CHUBUSAT-2,2016-012B,2026-07-21T23:45:08.651808,15.21189845,.00083809,30.9973,92.9384,72.4528,287.7029,0,U,41338,999,57372,.25065487E-3,.5852E-4,0
CHUBUSAT-3,2016-012C,2026-07-22T11:57:29.530944,15.18809835,.00088332,31.0041,100.0371,63.1808,296.9735,0,U,41339,999,57357,.18649867E-3,.4091E-4,0
ZIYUAN 3-02 (ZY 3-02),2016-033A,2026-07-22T15:24:12.206016,15.21153676,.00135061,97.3820,278.7339,162.1251,198.0463,0,U,41556,999,56337,.24714887E-3,.5449E-4,0
CARTOSAT-2C,2016-040A,2026-07-22T15:03:01.948896,15.19307376,.00088489,97.4466,263.1138,21.8700,338.2911,0,U,41599,999,55909,.3154447E-3,.6599E-4,0
LAPAN-A3,2016-040E,2026-07-22T15:07:06.926592,15.33310533,.00084046,97.1511,198.6195,243.0484,116.9901,0,U,41603,999,56024,.1004563E-3,.3161E-4,0
GAOFEN-3,2016-049A,2026-07-22T14:31:52.994208,14.42219253,.00017926,98.4027,210.8579,81.9115,278.2278,0,U,41727,999,52375,.32287919E-4,.63E-6,0
PRATHAM,2016-059A,2026-07-22T10:24:28.363968,14.67233142,.00326872,97.8343,198.7461,105.6545,254.8270,0,U,41783,999,52468,.10886007E-3,.571E-5,0
ALSAT-1N,2016-059G,2026-07-22T14:17:18.296160,14.69356279,.00274754,97.8023,205.3720,75.3438,285.0812,0,U,41789,999,52520,.89006071E-4,.482E-5,0
YUNHAI-1 01,2016-068A,2026-07-22T13:50:06.886176,14.32726638,.00026991,98.5857,214.2563,323.9493,36.1509,0,U,41857,999,50689,.15259753E-3,.371E-5,0
RESOURCESAT-2A,2016-074A,2026-07-22T14:44:02.638752,14.21611241,.00019417,98.7511,276.8264,10.5815,349.5403,0,U,41877,999,49933,.2263728E-3,.452E-5,0
TANSAT,2016-081A,2026-07-22T14:42:10.076832,14.59974697,.00199011,98.5383,204.9198,196.1789,163.8777,0,U,41898,999,50979,.59824544E-4,.237E-5,0
