{"epoch":1784762836,"count":18316,"objects":[{"id":"40920","name":"COSMOS 2507","type":"PAYLOAD","l1":"1 40920U 15050A   26203.56927397  .00000164  00000-0  11124-2 0  9999","l2":"2 40920  82.4902  57.6360 0008883 275.2029  84.8037 12.42928196491258"},{"id":"40921","name":"COSMOS 2508","type":"PAYLOAD","l1":"1 40921U 15050B   26203.60511987  .00000058  00000-0  34850-3 0  9993","l2":"2 40921  82.4855  56.1052 0013640 310.0121  49.9761 12.42915476491248"},{"id":"40922","name":"COSMOS 2509","type":"PAYLOAD","l1":"1 40922U 15050C   26203.54582809  .00000144  00000-0  96686-3 0  9999","l2":"2 40922  82.4863  56.2481 0014279 327.9002  32.1207 12.42885296491277"},{"id":"40958","name":"LQSAT","type":"PAYLOAD","l1":"1 40958U 15057A   26203.57360169  .00000394  00000-0  62868-4 0  9994","l2":"2 40958  97.6707 195.2007 0017603 152.4439 207.7709 14.76819010580533"},{"id":"40959","name":"LINGQIAO VIDEO A","type":"PAYLOAD","l1":"1 40959U 15057B   26203.64749782  .00000215  00000-0  36930-4 0  9998","l2":"2 40959  97.6646 196.7042 0017388 149.2378 210.9856 14.77431454580641"},{"id":"40960","name":"LINGQIAO VIDEO B","type":"PAYLOAD","l1":"1 40960U 15057C   26203.62163098  .00000844  00000-0  12475-3 0  9993","l2":"2 40960  97.6611 197.8335 0017562 149.3493 210.8748 14.77538945580681"},{"id":"40961","name":"JILIN 1","type":"PAYLOAD","l1":"1 40961U 15057D   26203.55153278  .00000593  00000-0  88331-4 0  9991","l2":"2 40961  97.6525 201.1659 0017839 143.8400 216.4022 14.78209190580830"},{"id":"40967","name":"FOX-1","type":"PAYLOAD","l1":"1 40967U 15058D   26203.36377450  .00003414  00000-0  30490-3 0  9994","l2":"2 40967  64.7740 169.6512 0132984  43.0929 318.0501 14.91122448118813"},{"id":"40968","name":"BISONSAT","type":"PAYLOAD","l1":"1 40968U 15058E   26203.30741598  .00005472  00000-0  43080-3 0  9992","l2":"2 40968  64.7744 148.9094 0121647  39.4656 321.5240 14.96140076121919"},{"id":"41105","name":"ELEKTRO-L 2","type":"PAYLOAD","l1":"1 41105U 15074A   26203.32630135 -.00000119  00000-0  00000-0 0  9996","l2":"2 41105   6.7802  70.0895 0000678 231.3120 101.6553  1.00272517 38858"},{"id":"41173","name":"DAMPE","type":"PAYLOAD","l1":"1 41173U 15078A   26203.59683455  .00001104  00000-0  39595-4 0  9996","l2":"2 41173  97.4574 209.2412 0010738 317.7198  42.3214 15.30866194589965"},{"id":"41179","name":"ORBCOMM FM 114","type":"PAYLOAD","l1":"1 41179U 15081A   26202.70097203  .00000230  00000-0  84885-4 0  9999","l2":"2 41179  47.0030 198.8231 0002691 333.6121  26.4627 14.58891456562794"},{"id":"41182","name":"ORBCOMM FM 110","type":"PAYLOAD","l1":"1 41182U 15081D   26203.37353052  .00000615  00000-0  16607-3 0  9997","l2":"2 41182  47.0003 195.0650 0003816 250.4417 109.6057 14.58926922562761"},{"id":"41184","name":"ORBCOMM FM 112","type":"PAYLOAD","l1":"1 41184U 15081F   26202.79552286  .00000447  00000-0  13062-3 0  9999","l2":"2 41184  46.9989 106.5867 0003283 357.6021   2.4849 14.58945312564002"},{"id":"41185","name":"ORBCOMM FM 113","type":"PAYLOAD","l1":"1 41185U 15081G   26203.45823577  .00000255  00000-0  90045-4 0  9992","l2":"2 41185  47.0007 103.8481 0001816 351.0559   9.0294 14.58887318564088"},{"id":"41187","name":"ORBCOMM FM 108","type":"PAYLOAD","l1":"1 41187U 15081J   26203.48857404  .00000412  00000-0  12318-3 0  9994","l2":"2 41187  47.0060  15.2864 0002174 351.0042   9.0805 14.58917449565230"},{"id":"41188","name":"ORBCOMM FM 117","type":"PAYLOAD","l1":"1 41188U 15081K   26203.52285717  .00000396  00000-0  11991-3 0  9999","l2":"2 41188  47.0023  13.7495 0002548 359.8916   0.1969 14.58904397565280"},{"id":"41189","name":"ORBCOMM FM 116","type":"PAYLOAD","l1":"1 41189U 15081L   26203.43446297  .00000420  00000-0  12494-3 0  9999","l2":"2 41189  47.0023 103.9572 0001737 248.7188 111.3513 14.58913578564083"},{"id":"41338","name":"CHUBUSAT 2","type":"PAYLOAD","l1":"1 41338U 16012B   26202.98968347  .00005852  00000-0  25065-3 0  9996","l2":"2 41338  30.9973  92.9384 0008381  72.4528 287.7029 15.21189845573728"},{"id":"41339","name":"CHUBUSAT 3","type":"PAYLOAD","l1":"1 41339U 16012C   26203.49825846  .00004091  00000-0  18650-3 0  9996","l2":"2 41339  31.0041 100.0371 0008833  63.1808 296.9735 15.18809835573577"},{"id":"41556","name":"ZY 3 2","type":"PAYLOAD","l1":"1 41556U 16033A   26203.64180794  .00005449  00000-0  24715-3 0  9990","l2":"2 41556  97.3820 278.7339 0013506 162.1251 198.0463 15.21153676563376"},{"id":"41599","name":"CARTOSAT 2C","type":"PAYLOAD","l1":"1 41599U 16040A   26203.62710589  .00006599  00000-0  31544-3 0  9999","l2":"2 41599  97.4466 263.1138 0008849  21.8700 338.2911 15.19307376559094"},{"id":"41603","name":"LAPAN A3","type":"PAYLOAD","l1":"1 41603U 16040E   26203.62994128  .00003161  00000-0  10046-3 0  9994","l2":"2 41603  97.1511 198.6195 0008405 243.0484 116.9901 15.33310533560242"},{"id":"41727","name":"GAOFEN 3","type":"PAYLOAD","l1":"1 41727U 16049A   26203.60547447  .00000063  00000-0  32288-4 0  9997","l2":"2 41727  98.4027 210.8579 0001793  81.9115 278.2278 14.42219253523751"},{"id":"41783","name":"PRATHAM","type":"PAYLOAD","l1":"1 41783U 16059A   26203.43366162  .00000571  00000-0  10886-3 0  9997","l2":"2 41783  97.8343 198.7461 0032687 105.6545 254.8270 14.67233142524683"},{"id":"41789","name":"ALSAT 1N","type":"PAYLOAD","l1":"1 41789U 16059G   26203.59535065  .00000482  00000-0  89006-4 0  9992","l2":"2 41789  97.8023 205.3720 0027475  75.3438 285.0812 14.69356279525206"},{"id":"41857","name":"YUNHAI 1","type":"PAYLOAD","l1":"1 41857U 16068A   26203.57646859  .00000371  00000-0  15260-3 0  9997","l2":"2 41857  98.5857 214.2563 0002699 323.9493  36.1509 14.32726638506895"},{"id":"41877","name":"RESOURCESAT 2A","type":"PAYLOAD","l1":"1 41877U 16074A   26203.61391943  .00000452  00000-0  22637-3 0  9998","l2":"2 41877  98.7511 276.8264 0001942  10.5815 349.5403 14.21611241499330"},{"id":"41898","name":"TANSAT","type":"PAYLOAD","l1":"1 41898U 16081A   26203.61261663  .00000237  00000-0  59825-4 0  9995","l2":"2 41898  98.5383 204.9198 0019901 196.1789 163.8777 14.59974697509792"}]}